[{"OBJECT_NAME":"STARLINK-3664","OBJECT_ID":"2022-025AE","EPOCH":"2026-03-09T21:56:41.615520","MEAN_MOTION":15.08841974,"ECCENTRICITY":0.00011512,"INCLINATION":53.218,"RA_OF_ASC_NODE":38.2001,"ARG_OF_PERICENTER":81.8095,"MEAN_ANOMALY":278.3028,"EPHEMERIS_TYPE":0,"CLASSIFICATION_TYPE":"U","NORAD_CAT_ID":51984,"ELEMENT_SET_NO":999,"REV_AT_EPOCH":22109,"BSTAR":3.564954e-5,"MEAN_MOTION_DOT":2.8e-6,"MEAN_MOTION_DDOT":0},{"OBJECT_NAME":"ONEWEB-0618","OBJECT_ID":"2023-004V","EPOCH":"2026-03-09T21:27:12.326688","MEAN_MOTION":15.11974897,"ECCENTRICITY":0.00107842,"INCLINATION":86.9069,"RA_OF_ASC_NODE":217.8931,"ARG_OF_PERICENTER":307.7231,"MEAN_ANOMALY":52.303,"EPHEMERIS_TYPE":0,"CLASSIFICATION_TYPE":"U","NORAD_CAT_ID":55159,"ELEMENT_SET_NO":999,"REV_AT_EPOCH":16725,"BSTAR":0.00049587895,"MEAN_MOTION_DOT":8.547e-5,"MEAN_MOTION_DDOT":0}]
